{"type": "FeatureCollection", "features": [ {"type": "Feature", "properties": {"norad_id": 66052, "name": "HRC MONOBLOCK CAMERA", "group": "stations", "lat": -50.06144865583239, "lon": 82.41745088201459, "alt_km": 410.79174991179207, "timestamp": "2025-12-10T07:43:53.564749+00:00", "meta": {"OBJECT_NAME": "HRC MONOBLOCK CAMERA", "OBJECT_ID": "1998-067XR", "EPOCH": "2025-12-09T18:10:29.332416", "MEAN_MOTION": 15.53817213, "ECCENTRICITY": 0.0003757, "INCLINATION": 51.6293, "RA_OF_ASC_NODE": 156.375, "ARG_OF_PERICENTER": 171.9059, "MEAN_ANOMALY": 188.1993, "EPHEMERIS_TYPE": 0, "CLASSIFICATION_TYPE": "U", "NORAD_CAT_ID": 66052, "ELEMENT_SET_NO": 999, "REV_AT_EPOCH": 837, "BSTAR": 0.00070101, "MEAN_MOTION_DOT": 0.00045676, "MEAN_MOTION_DDOT": 0}, "tle": {"line1": "1 66052U 98067XR  25343.75728394  .00045676  00000+0  70101-3 0  9990", "line2": "2 66052  51.6293 156.3750 0003757 171.9059 188.1993 15.53817213  8371"}}, "geometry": {"type": "Point", "coordinates": [82.41745088201459, -50.06144865583239]}}, {"type": "Feature", "properties": {"norad_id": 66174, "name": "HTV-X1", "group": "stations", "lat": -26.138258046163234, "lon": -2.6720079943791655, "alt_km": 419.42774211725555, "timestamp": "2025-12-10T07:43:53.564760+00:00", "meta": {"OBJECT_NAME": "HTV-X1", "OBJECT_ID": "2025-241A", "EPOCH": "2025-12-09T12:14:10.839552", "MEAN_MOTION": 15.49447168, "ECCENTRICITY": 0.00034, "INCLINATION": 51.631, "RA_OF_ASC_NODE": 158.4724, "ARG_OF_PERICENTER": 223.8185, "MEAN_ANOMALY": 136.2534, "EPHEMERIS_TYPE": 0, "CLASSIFICATION_TYPE": "U", "NORAD_CAT_ID": 66174, "ELEMENT_SET_NO": 999, "REV_AT_EPOCH": 51, "BSTAR": 0.00026025969, "MEAN_MOTION_DOT": 0.00014141, "MEAN_MOTION_DDOT": 0}, "tle": {"line1": "1 66174U 25241A   25343.50984768  .00014141  00000+0  26026-3 0  9991", "line2": "2 66174  51.6310 158.4724 0003400 223.8185 136.2534 15.49447168   518"}}, "geometry": {"type": "Point", "coordinates": [-2.6720079943791655, -26.138258046163234]}}, {"type": "Feature", "properties": {"norad_id": 66515, "name": "SZ-21 MODULE", "group": "stations", "lat": 37.37434842011781, "lon": 150.9441671718861, "alt_km": 377.8692682074543, "timestamp": "2025-12-10T07:43:53.564770+00:00", "meta": {"OBJECT_NAME": "SZ-21 MODULE", "OBJECT_ID": "2025-246C", "EPOCH": "2025-12-09T20:30:29.695968", "MEAN_MOTION": 15.6226557, "ECCENTRICITY": 0.0006298, "INCLINATION": 41.4773, "RA_OF_ASC_NODE": 33.6441, "ARG_OF_PERICENTER": 244.5965, "MEAN_ANOMALY": 115.4223, "EPHEMERIS_TYPE": 0, "CLASSIFICATION_TYPE": "U", "NORAD_CAT_ID": 66515, "ELEMENT_SET_NO": 999, "REV_AT_EPOCH": 399, "BSTAR": 0.0003668, "MEAN_MOTION_DOT": 0.0003312, "MEAN_MOTION_DDOT": 0}, "tle": {"line1": "1 66515U 25246C   25343.85451037  .00033120  00000+0  36680-3 0  9996", "line2": "2 66515  41.4773  33.6441 0006298 244.5965 115.4223 15.62265570  3990"}}, "geometry": {"type": "Point", "coordinates": [150.9441671718861, 37.37434842011781]}}, {"type": "Feature", "properties": {"norad_id": 66645, "name": "SHENZHOU-22", "group": "stations", "lat": -32.3621388991065, "lon": -102.7628887792357, "alt_km": 397.57383913674494, "timestamp": "2025-12-10T07:43:53.564780+00:00", "meta": {"OBJECT_NAME": "SHENZHOU-22", "OBJECT_ID": "2025-272A", "EPOCH": "2025-12-09T13:49:14.456064", "MEAN_MOTION": 15.58965688, "ECCENTRICITY": 0.00089597, "INCLINATION": 41.4682, "RA_OF_ASC_NODE": 35.9133, "ARG_OF_PERICENTER": 5.1145, "MEAN_ANOMALY": 354.9784, "EPHEMERIS_TYPE": 0, "CLASSIFICATION_TYPE": "U", "NORAD_CAT_ID": 66645, "ELEMENT_SET_NO": 999, "REV_AT_EPOCH": 26300, "BSTAR": 0.00041052725, "MEAN_MOTION_DOT": 0.00032682, "MEAN_MOTION_DDOT": 0}, "tle": {"line1": "1 66645U 25272A   25343.57586176  .00032682  00000+0  41053-3 0  9993", "line2": "2 66645  41.4682  35.9133 0008959   5.1145 354.9784 15.58965688263007"}}, "geometry": {"type": "Point", "coordinates": [-102.7628887792357, -32.3621388991065]}}, {"type": "Feature", "properties": {"norad_id": 66664, "name": "SOYUZ-MS 28", "group": "stations", "lat": -26.13829974402167, "lon": -2.6719635536755626, "alt_km": 419.427744628425, "timestamp": "2025-12-10T07:43:53.564790+00:00", "meta": {"OBJECT_NAME": "SOYUZ-MS 28", "OBJECT_ID": "2025-275A", "EPOCH": "2025-12-09T12:14:10.838688", "MEAN_MOTION": 15.49447168, "ECCENTRICITY": 0.00034, "INCLINATION": 51.631, "RA_OF_ASC_NODE": 158.4724, "ARG_OF_PERICENTER": 223.8185, "MEAN_ANOMALY": 136.2534, "EPHEMERIS_TYPE": 0, "CLASSIFICATION_TYPE": "U", "NORAD_CAT_ID": 66664, "ELEMENT_SET_NO": 999, "REV_AT_EPOCH": 194, "BSTAR": 0.00026026, "MEAN_MOTION_DOT": 0.00014141, "MEAN_MOTION_DDOT": 0}, "tle": {"line1": "1 66664U 25275A   25343.50984767  .00014141  00000+0  26026-3 0  9991", "line2": "2 66664  51.6310 158.4724 0003400 223.8185 136.2534 15.49447168  1940"}}, "geometry": {"type": "Point", "coordinates": [-2.6719635536755626, -26.13829974402167]}}, {"type": "Feature", "properties": {"norad_id": 66906, "name": "1998-067XS", "group": "stations", "lat": -40.149048324439164, "lon": 16.344052898030107, "alt_km": 417.9193457629053, "timestamp": "2025-12-10T07:43:53.564800+00:00", "meta": {"OBJECT_NAME": "1998-067XS", "OBJECT_ID": "1998-067XS", "EPOCH": "2025-12-09T12:09:24.113376", "MEAN_MOTION": 15.50312686, "ECCENTRICITY": 0.00039811, "INCLINATION": 51.63, "RA_OF_ASC_NODE": 158.4502, "ARG_OF_PERICENTER": 188.2752, "MEAN_ANOMALY": 171.8172, "EPHEMERIS_TYPE": 0, "CLASSIFICATION_TYPE": "U", "NORAD_CAT_ID": 66906, "ELEMENT_SET_NO": 999, "REV_AT_EPOCH": 111, "BSTAR": 0.00059211588, "MEAN_MOTION_DOT": 0.00033864, "MEAN_MOTION_DDOT": 0}, "tle": {"line1": "1 66906U 98067XS  25343.50652909  .00033864  00000+0  59212-3 0  9995", "line2": "2 66906  51.6300 158.4502 0003981 188.2752 171.8172 15.50312686  1110"}}, "geometry": {"type": "Point", "coordinates": [16.344052898030107, -40.149048324439164]}}, {"type": "Feature", "properties": {"norad_id": 66907, "name": "1998-067XT", "group": "stations", "lat": -44.766372373394354, "lon": 26.186599979997382, "alt_km": 415.484284443608, "timestamp": "2025-12-10T07:43:53.564810+00:00", "meta": {"OBJECT_NAME": "1998-067XT", "OBJECT_ID": "1998-067XT", "EPOCH": "2025-12-09T12:07:37.114752", "MEAN_MOTION": 15.50864429, "ECCENTRICITY": 0.00048036, "INCLINATION": 51.6307, "RA_OF_ASC_NODE": 158.4423, "ARG_OF_PERICENTER": 208.5081, "MEAN_ANOMALY": 151.5646, "EPHEMERIS_TYPE": 0, "CLASSIFICATION_TYPE": "U", "NORAD_CAT_ID": 66907, "ELEMENT_SET_NO": 999, "REV_AT_EPOCH": 111, "BSTAR": 0.0012921241, "MEAN_MOTION_DOT": 0.00076342, "MEAN_MOTION_DDOT": 0}, "tle": {"line1": "1 66907U 98067XT  25343.50529068  .00076342  00000+0  12921-2 0  9998", "line2": "2 66907  51.6307 158.4423 0004803 208.5081 151.5646 15.50864429  1113"}}, "geometry": {"type": "Point", "coordinates": [26.186599979997382, -44.766372373394354]}}, {"type": "Feature", "properties": {"norad_id": 66908, "name": "1998-067XU", "group": "stations", "lat": -45.369610498841034, "lon": 27.762277139907045, "alt_km": 415.3299063609229, "timestamp": "2025-12-10T07:43:53.564820+00:00", "meta": {"OBJECT_NAME": "1998-067XU", "OBJECT_ID": "1998-067XU", "EPOCH": "2025-12-09T18:18:28.282176", "MEAN_MOTION": 15.50948128, "ECCENTRICITY": 0.0005009, "INCLINATION": 51.6303, "RA_OF_ASC_NODE": 157.1615, "ARG_OF_PERICENTER": 208.2103, "MEAN_ANOMALY": 151.8616, "EPHEMERIS_TYPE": 0, "CLASSIFICATION_TYPE": "U", "NORAD_CAT_ID": 66908, "ELEMENT_SET_NO": 999, "REV_AT_EPOCH": 115, "BSTAR": 0.0013388, "MEAN_MOTION_DOT": 0.00079389, "MEAN_MOTION_DDOT": 0}, "tle": {"line1": "1 66908U 98067XU  25343.76282734  .00079389  00000+0  13388-2 0  9995", "line2": "2 66908  51.6303 157.1615 0005009 208.2103 151.8616 15.50948128  1153"}}, "geometry": {"type": "Point", "coordinates": [27.762277139907045, -45.369610498841034]}}, {"type": "Feature", "properties": {"norad_id": 66909, "name": "SILVERSAT", "group": "stations", "lat": -45.91801866309782, "lon": 29.27678431165014, "alt_km": 415.06853144115485, "timestamp": "2025-12-10T07:43:53.564830+00:00", "meta": {"OBJECT_NAME": "SILVERSAT", "OBJECT_ID": "1998-067XV", "EPOCH": "2025-12-09T19:50:59.695584", "MEAN_MOTION": 15.51056405, "ECCENTRICITY": 0.0004877, "INCLINATION": 51.6304, "RA_OF_ASC_NODE": 156.8402, "ARG_OF_PERICENTER": 210.6195, "MEAN_ANOMALY": 149.451, "EPHEMERIS_TYPE": 0, "CLASSIFICATION_TYPE": "U", "NORAD_CAT_ID": 66909, "ELEMENT_SET_NO": 999, "REV_AT_EPOCH": 116, "BSTAR": 0.00154, "MEAN_MOTION_DOT": 0.00091886, "MEAN_MOTION_DDOT": 0}, "tle": {"line1": "1 66909U 98067XV  25343.82707981  .00091886  00000+0  15400-2 0  9992", "line2": "2 66909  51.6304 156.8402 0004877 210.6195 149.4510 15.51056405  1161"}}, "geometry": {"type": "Point", "coordinates": [29.27678431165014, -45.91801866309782]}}, {"type": "Feature", "properties": {"norad_id": 66910, "name": "1998-067XW", "group": "stations", "lat": -48.70970438328767, "lon": 38.811042044930204, "alt_km": 415.3187106480782, "timestamp": "2025-12-10T07:43:53.564840+00:00", "meta": {"OBJECT_NAME": "1998-067XW", "OBJECT_ID": "1998-067XW", "EPOCH": "2025-12-09T18:16:30.088704", "MEAN_MOTION": 15.51233501, "ECCENTRICITY": 0.0005725, "INCLINATION": 51.6303, "RA_OF_ASC_NODE": 157.1524, "ARG_OF_PERICENTER": 193.6821, "MEAN_ANOMALY": 166.4014, "EPHEMERIS_TYPE": 0, "CLASSIFICATION_TYPE": "U", "NORAD_CAT_ID": 66910, "ELEMENT_SET_NO": 999, "REV_AT_EPOCH": 115, "BSTAR": 0.0012863, "MEAN_MOTION_DOT": 0.00077029, "MEAN_MOTION_DDOT": 0}, "tle": {"line1": "1 66910U 98067XW  25343.76145936  .00077029  00000+0  12863-2 0  9996", "line2": "2 66910  51.6303 157.1524 0005725 193.6821 166.4014 15.51233501  1151"}}, "geometry": {"type": "Point", "coordinates": [38.811042044930204, -48.70970438328767]}}]}